{
  "type": "Feature",
  "id": "candidate:osm:way/44076412",
  "geometry": {
    "type": "Polygon",
    "coordinates": [
      [
        [
          121.2416125,
          14.1642209
        ],
        [
          121.2419549,
          14.1643768
        ],
        [
          121.241917,
          14.1644552
        ],
        [
          121.2417559,
          14.1643881
        ],
        [
          121.2417017,
          14.164481
        ],
        [
          121.2418619,
          14.1645542
        ],
        [
          121.241859,
          14.1645605
        ],
        [
          121.2418555,
          14.164568
        ],
        [
          121.2418382,
          14.164605
        ],
        [
          121.2418772,
          14.1646197
        ],
        [
          121.2419107,
          14.1646336
        ],
        [
          121.2419334,
          14.164644
        ],
        [
          121.2422479,
          14.1647774
        ],
        [
          121.2422917,
          14.1647631
        ],
        [
          121.2423453,
          14.1646601
        ],
        [
          121.2421532,
          14.1645763
        ],
        [
          121.2419666,
          14.164502
        ],
        [
          121.2419925,
          14.1644529
        ],
        [
          121.2422046,
          14.1645381
        ],
        [
          121.2423174,
          14.1643073
        ],
        [
          121.2420906,
          14.1642075
        ],
        [
          121.2421096,
          14.1641583
        ],
        [
          121.2422587,
          14.1642229
        ],
        [
          121.2424156,
          14.1639086
        ],
        [
          121.2421674,
          14.1637937
        ],
        [
          121.2420969,
          14.1639216
        ],
        [
          121.2420752,
          14.1639612
        ],
        [
          121.2417743,
          14.1638317
        ],
        [
          121.241708,
          14.1639899
        ],
        [
          121.2417354,
          14.1640025
        ],
        [
          121.2420628,
          14.16415
        ],
        [
          121.2420321,
          14.1642142
        ],
        [
          121.2417085,
          14.1640682
        ],
        [
          121.2416803,
          14.1640574
        ],
        [
          121.2416125,
          14.1642209
        ]
      ]
    ]
  },
  "properties": {
    "name": "Francisco O. Santos Hall",
    "aliases": [
      "PhySci",
      "Physical Sciences Building"
    ],
    "sourceLifecycle": "candidate",
    "source": "vertical-slice-v0.1 reviewed/context selection",
    "sourceGeometryHash": "sha256:572b8dd22889402536774035746bab7b79640bc368db7ede0a1a84ef9d8f3415",
    "attributes": {
      "building": "university",
      "building:levels": "3",
      "building:material": "concrete",
      "old_name": "Physical Sciences",
      "roof:shape": "gabled"
    },
    "verification": {
      "footprint": "source-supported",
      "height": "source-supported-level-count",
      "identity": "candidate",
      "position": "source-supported"
    },
    "snapshotPolicy": "Evidence snapshot only. This file does not promote candidate identity to canonical truth."
  }
}
