{
  "areaSource": "data/areas/vertical-slice-v0.geojson",
  "candidateCount": 10293,
  "canonicalVersion": "canonical-v1",
  "features": [
    {
      "geometry": {
        "coordinates": [
          [
            [
              121.2425717,
              14.1616089
            ],
            [
              121.2425392,
              14.1615886
            ],
            [
              121.2425096,
              14.161633
            ],
            [
              121.2424807,
              14.1616762
            ],
            [
              121.2425132,
              14.1616965
            ],
            [
              121.2424861,
              14.161737
            ],
            [
              121.242722,
              14.1618863
            ],
            [
              121.2429078,
              14.1620018
            ],
            [
              121.2430562,
              14.1617797
            ],
            [
              121.2426345,
              14.1615149
            ],
            [
              121.2425717,
              14.1616089
            ]
          ]
        ],
        "type": "Polygon"
      },
      "id": "uplb:building:baker-hall",
      "properties": {
        "aliases": [
          "Baker Hall"
        ],
        "assetBinding": null,
        "attributes": {
          "building": "yes",
          "geometryReason": "valid",
          "geometryState": "valid",
          "levels": 2.0,
          "originalGeometryHash": "sha256:453a6ff16f9a8a5f99be1d9dd8f1eef5831f4b57afac3b1ff9a061fb3a0407f9",
          "osmTags": {
            "addr:city": "Los Baños",
            "addr:postcode": "4031",
            "addr:street": "Mariano M. Mondoñedo Avenue",
            "alt_name": "Baker Hall",
            "building": "yes",
            "building:levels": "2",
            "building:material": "concrete",
            "building:underground": "1",
            "leisure": "stadium",
            "name": "Charles Fuller Baker Memorial Hall",
            "roof:material": "eternit",
            "start_date": "1938",
            "wikidata": "Q18209841",
            "wikimedia_commons": "Category:Baker Memorial Hall",
            "wikipedia": "en:Baker Memorial Hall"
          }
        },
        "confidence": {
          "facade": "unknown",
          "footprint": "medium",
          "height": "medium",
          "position": "medium"
        },
        "externalIds": {
          "osm": "way/37449973"
        },
        "featureType": "building",
        "name": "Charles Fuller Baker Memorial Hall",
        "provenance": [
          "source:osm:uplb-aoi@2026-08-17"
        ],
        "verificationStatus": "source-supported",
        "verification": {
          "facade": "unknown",
          "footprint": "source-supported",
          "height": "source-supported",
          "identity": "source-supported",
          "interior": "unknown",
          "position": "source-supported"
        }
      },
      "type": "Feature"
    },
    {
      "geometry": {
        "coordinates": [
          121.24173,
          14.16128
        ],
        "type": "Point"
      },
      "id": "uplb:landmark:freedom-park",
      "properties": {
        "aliases": [
          "Freedom Park"
        ],
        "assetBinding": null,
        "attributes": {
          "referenceConfidence": "reference-only"
        },
        "confidence": {
          "facade": "unknown",
          "footprint": "unknown",
          "height": "unknown",
          "position": "medium"
        },
        "externalIds": {
          "osm": "way/33541968"
        },
        "featureType": "landmark",
        "name": "UPLB Freedom Park",
        "provenance": [
          "source:osm:uplb-aoi@2026-08-17"
        ],
        "verificationStatus": "provisional",
        "verification": {
          "facade": "unknown",
          "footprint": "unknown",
          "height": "unknown",
          "identity": "provisional",
          "interior": "unknown",
          "position": "source-supported"
        }
      },
      "type": "Feature"
    },
    {
      "geometry": {
        "coordinates": [
          121.24155,
          14.165
        ],
        "type": "Point"
      },
      "id": "uplb:landmark:oblation",
      "properties": {
        "aliases": [
          "Oblation"
        ],
        "assetBinding": null,
        "attributes": {
          "referenceConfidence": "reference-only"
        },
        "confidence": {
          "facade": "unknown",
          "footprint": "unknown",
          "height": "unknown",
          "position": "medium"
        },
        "externalIds": {
          "osm": "node/382803333"
        },
        "featureType": "landmark",
        "name": "UPLB Oblation",
        "provenance": [
          "source:osm:uplb-aoi@2026-08-17"
        ],
        "verificationStatus": "provisional",
        "verification": {
          "facade": "unknown",
          "footprint": "unknown",
          "height": "unknown",
          "identity": "provisional",
          "interior": "unknown",
          "position": "source-supported"
        }
      },
      "type": "Feature"
    }
  ],
  "lifecycle": "canonical",
  "type": "FeatureCollection"
}
